IRIDIUM 171             
1 43929U 19002H   24313.24527346  .00001168  00000+0  40986-3 0  9990
2 43929  86.3995 238.6318 0002088  74.1004 286.0422 14.34233522304970
IRIDIUM 170             
1 43930U 19002J   24312.26396012  .00004565  00000+0  71895-3 0  9994
2 43930  86.6110 238.8359 0002259  82.1078 278.0396 14.72296345312908
IRIDIUM 167             
1 43931U 19002K   24313.72735094  .00001533  00000+0  54006-3 0  9991
2 43931  86.3987 238.2064 0002433  74.7113 285.4351 14.34218686305046
IRIDIUM 181             
1 56726U 23068S   24314.04814103  .00000753  00000+0  21658-3 0  9999
2 56726  86.8581 298.8623 0002253  79.1437 281.0018 14.43594310 78037
IRIDIUM 177             
1 56727U 23068T   24312.54054275  .00006184  00000+0  80871-3 0  9995
2 56727  86.1970 247.2645 0003352  82.8380 277.3222 14.80291492 79586
IRIDIUM 174             
1 56728U 23068U   24312.53503777  .00006116  00000+0  79956-3 0  9998
2 56728  86.1977 247.3823 0003117  81.5284 278.6290 14.80307761 79587
IRIDIUM 178             
1 56729U 23068V   24310.63689581  .00006096  00000+0  79902-3 0  9994
2 56729  86.5847 272.4514 0004393  79.5771 280.5945 14.80195797 79302
IRIDIUM 179             
1 56730U 23068W   24313.80871041  .00005921  00000+0  77434-3 0  9996
2 56730  86.6753 277.0565 0003176  79.4279 280.7300 14.80289240 79773
